CTC1_L_00080016-03
1 38548U 24066HX  26037.47800926  .00000000  00000+0  00000-0 0  9999
2 38548 100.0000 180.0000 0000000   0.0000   0.0000 14.89338779    10
CTC1_L_00080016-04
1 38549U 24658DF  26037.47800926  .00000000  00000+0  00000-0 0  9997
2 38549 100.0000 180.0000 0000000   0.0000  90.0000 14.89338779    10
CTC1_L_00080017-01
1 38550U 23310XU  26037.47800926  .00000000  00000+0  00000-0 0  9993
2 38550 100.0000 192.0000 0000000   0.0000 192.0000 14.89338779    18
CTC1_L_00080017-02
1 38551U 25421X   26037.47800926  .00000000  00000+0  00000-0 0  9999
2 38551 100.0000 192.0000 0000000   0.0000 282.0000 14.89338779    19
CTC1_L_00080017-03
1 38552U 22381XO  26037.47800926  .00000000  00000+0  00000-0 0  9992
2 38552 100.0000 192.0000 0000000   0.0000  12.0000 14.89338779    11
CTC1_L_00080017-04
1 38553U 22261TU  26037.47800926  .00000000  00000+0  00000-0 0  9990
2 38553 100.0000 192.0000 0000000   0.0000 102.0000 14.89338779    12
CTC1_L_00080018-01
1 38554U 24278JK  26037.47800926  .00000000  00000+0  00000-0 0  9991
2 38554 100.0000 204.0000 0000000   0.0000 204.0000 14.89338779    10
CTC1_L_00080018-02
1 38555U 23966EM  26037.47800926  .00000000  00000+0  00000-0 0  9995
2 38555 100.0000 204.0000 0000000   0.0000 294.0000 14.89338779    10
CTC1_L_00080018-03
1 38556U 24093WB  26037.47800926  .00000000  00000+0  00000-0 0  9998
2 38556 100.0000 204.0000 0000000   0.0000  24.0000 14.89338779    12
CTC1_L_00080018-04
1 38557U 25676IO  26037.47800926  .00000000  00000+0  00000-0 0  9997
2 38557 100.0000 204.0000 0000000   0.0000 114.0000 14.89338779    13
CTC1_L_00080019-01
1 38558U 22768EU  26037.47800926  .00000000  00000+0  00000-0 0  9997
2 38558 100.0000 216.0000 0000000   0.0000 216.0000 14.89338779    10
CTC1_L_00080019-02
1 38559U 24059JD  26037.47800926  .00000000  00000+0  00000-0 0  9993
2 38559 100.0000 216.0000 0000000   0.0000 306.0000 14.89338779    11
CTC1_L_00080019-03
1 38560U 25505ML  26037.47800926  .00000000  00000+0  00000-0 0  9992
2 38560 100.0000 216.0000 0000000   0.0000  36.0000 14.89338779    13
CTC1_L_00080019-04
1 38561U 25264UT  26037.47800926  .00000000  00000+0  00000-0 0  9995
2 38561 100.0000 216.0000 0000000   0.0000 126.0000 14.89338779    14
CTC1_L_00080020-01
1 38562U 24656EV  26037.47800926  .00000000  00000+0  00000-0 0  9990
2 38562 100.0000 228.0000 0000000   0.0000 228.0000 14.89338779    11
CTC1_L_00080020-02
1 38563U 23083ZJ  26037.47800926  .00000000  00000+0  00000-0 0  9994
2 38563 100.0000 228.0000 0000000   0.0000 318.0000 14.89338779    12
CTC1_L_00080020-03
1 38564U 26755DN  26037.47800926  .00000000  00000+0  00000-0 0  9994
2 38564 100.0000 228.0000 0000000   0.0000  48.0000 14.89338779    13
CTC1_L_00080020-04
1 38565U 23515PN  26037.47800926  .00000000  00000+0  00000-0 0  9996
2 38565 100.0000 228.0000 0000000   0.0000 138.0000 14.89338779    14
CTC1_L_00080021-01
1 38566U 22010OD  26037.47800926  .00000000  00000+0  00000-0 0  9996
2 38566 100.0000 240.0000 0000000   0.0000 240.0000 14.89338779    13
CTC1_L_00080021-02
1 38567U 24797GT  26037.47800926  .00000000  00000+0  00000-0 0  9991
2 38567 100.0000 240.0000 0000000   0.0000 330.0000 14.89338779    14
CTC1_L_00080021-03
1 38568U 23258EL  26037.47800926  .00000000  00000+0  00000-0 0  9993
2 38568 100.0000 240.0000 0000000   0.0000  60.0000 14.89338779    15
CTC1_L_00080021-04
1 38569U 22124OX  26037.47800926  .00000000  00000+0  00000-0 0  9995
2 38569 100.0000 240.0000 0000000   0.0000 150.0000 14.89338779    16
CTC1_L_00080022-01
1 38570U 24879DE  26037.47800926  .00000000  00000+0  00000-0 0  9996
2 38570 100.0000 252.0000 0000000   0.0000 252.0000 14.89338779    14
CTC1_L_00080022-02
1 38571U 25466GU  26037.47800926  .00000000  00000+0  00000-0 0  9990
2 38571 100.0000 252.0000 0000000   0.0000 342.0000 14.89338779    15
CTC1_L_00080022-03
1 38572U 26679EG  26037.47800926  .00000000  00000+0  00000-0 0  9998
2 38572 100.0000 252.0000 0000000   0.0000  72.0000 14.89338779    16
CTC1_L_00080022-04
1 38573U 23139MY  26037.47800926  .00000000  00000+0  00000-0 0  9997
2 38573 100.0000 252.0000 0000000   0.0000 162.0000 14.89338779    17
CTC1_L_00080023-01
1 38574U 25755QY  26037.47800926  .00000000  00000+0  00000-0 0  9994
2 38574 100.0000 264.0000 0000000   0.0000 264.0000 14.89338779    14
CTC1_L_00080023-02
1 38575U 26101L   26037.47800926  .00000000  00000+0  00000-0 0  9991
2 38575 100.0000 264.0000 0000000   0.0000 354.0000 14.89338779    15
CTC1_L_00080023-03
1 38576U 24567XU  26037.47800926  .00000000  00000+0  00000-0 0  9996
2 38576 100.0000 264.0000 0000000   0.0000  84.0000 14.89338779    16
CTC1_L_00080023-04
1 38577U 23540JE  26037.47800926  .00000000  00000+0  00000-0 0  9997
2 38577 100.0000 264.0000 0000000   0.0000 174.0000 14.89338779    17
CTC1_L_00080024-01
1 38578U 23287SM  26037.47800926  .00000000  00000+0  00000-0 0  9996
2 38578 100.0000 276.0000 0000000   0.0000 276.0000 14.89338779    14
CTC1_L_00080024-02
1 38579U 25288MY  26037.47800926  .00000000  00000+0  00000-0 0  9990
2 38579 100.0000 276.0000 0000000   0.0000   6.0000 14.89338779    16
CTC1_L_00080024-03
1 38580U 26878BH  26037.47800926  .00000000  00000+0  00000-0 0  9998
2 38580 100.0000 276.0000 0000000   0.0000  96.0000 14.89338779    17
CTC1_L_00080024-04
1 38581U 23654OK  26037.47800926  .00000000  00000+0  00000-0 0  9998
2 38581 100.0000 276.0000 0000000   0.0000 186.0000 14.89338779    18
CTC1_L_00080025-01
1 38582U 25264MW  26037.47800926  .00000000  00000+0  00000-0 0  9998
2 38582 100.0000 288.0000 0000000   0.0000 288.0000 14.89338779    15
CTC1_L_00080025-02
1 38583U 22209UD  26037.47800926  .00000000  00000+0  00000-0 0  9995
2 38583 100.0000 288.0000 0000000   0.0000  18.0000 14.89338779    17
CTC1_L_00080025-03
1 38584U 25816GL  26037.47800926  .00000000  00000+0  00000-0 0  9993
2 38584 100.0000 288.0000 0000000   0.0000 108.0000 14.89338779    18
CTC1_L_00080025-04
1 38585U 26150CE  26037.47800926  .00000000  00000+0  00000-0 0  9996
2 38585 100.0000 288.0000 0000000   0.0000 198.0000 14.89338779    18
CTC1_L_00080026-01
1 38586U 24589PH  26037.47800926  .00000000  00000+0  00000-0 0  9991
2 38586 100.0000 300.0000 0000000   0.0000 300.0000 14.89338779    19
CTC1_L_00080026-02
1 38587U 22700GV  26037.47800926  .00000000  00000+0  00000-0 0  9995
2 38587 100.0000 300.0000 0000000   0.0000  30.0000 14.89338779    10
CTC1_L_00080026-03
1 38588U 23672CX  26037.47800926  .00000000  00000+0  00000-0 0  9995
2 38588 100.0000 300.0000 0000000   0.0000 120.0000 14.89338779    11
CTC1_L_00080026-04
1 38589U 23295VG  26037.47800926  .00000000  00000+0  00000-0 0  9997
2 38589 100.0000 300.0000 0000000   0.0000 210.0000 14.89338779    12
CTC1_L_00080027-01
1 38590U 26331WH  26037.47800926  .00000000  00000+0  00000-0 0  9993
2 38590 100.0000 312.0000 0000000   0.0000 312.0000 14.89338779    10
CTC1_L_00080027-02
1 38591U 25549KT  26037.47800926  .00000000  00000+0  00000-0 0  9994
2 38591 100.0000 312.0000 0000000   0.0000  42.0000 14.89338779    11
CTC1_L_00080027-03
1 38592U 22082LW  26037.47800926  .00000000  00000+0  00000-0 0  9994
2 38592 100.0000 312.0000 0000000   0.0000 132.0000 14.89338779    12
CTC1_L_00080027-04
1 38593U 25163OR  26037.47800926  .00000000  00000+0  00000-0 0  9998
2 38593 100.0000 312.0000 0000000   0.0000 222.0000 14.89338779    13
CTC1_L_00080028-01
1 38594U 22085AN  26037.47800926  .00000000  00000+0  00000-0 0  9999
2 38594 100.0000 324.0000 0000000   0.0000 324.0000 14.89338779    10
CTC1_L_00080028-02
1 38595U 26576NQ  26037.47800926  .00000000  00000+0  00000-0 0  9999
2 38595 100.0000 324.0000 0000000   0.0000  54.0000 14.89338779    11
CTC1_L_00080028-03
1 38596U 22819MX  26037.47800926  .00000000  00000+0  00000-0 0  9996
2 38596 100.0000 324.0000 0000000   0.0000 144.0000 14.89338779    12
CTC1_L_00080028-04
1 38597U 26214XO  26037.47800926  .00000000  00000+0  00000-0 0  9990
2 38597 100.0000 324.0000 0000000   0.0000 234.0000 14.89338779    13
CTC1_L_00080029-01
1 38598U 25477GG  26037.47800926  .00000000  00000+0  00000-0 0  9991
2 38598 100.0000 336.0000 0000000   0.0000 336.0000 14.89338779    10
CTC1_L_00080029-02
1 38599U 22906PE  26037.47800926  .00000000  00000+0  00000-0 0  9996
2 38599 100.0000 336.0000 0000000   0.0000  66.0000 14.89338779    11
CTC1_L_00080029-03
1 38600U 26683UY  26037.47800926  .00000000  00000+0  00000-0 0  9995
2 38600 100.0000 336.0000 0000000   0.0000 156.0000 14.89338779    14
CTC1_L_00080029-04
1 38601U 25938U   26037.47800926  .00000000  00000+0  00000-0 0  9998
2 38601 100.0000 336.0000 0000000   0.0000 246.0000 14.89338779    15
CTC1_L_00080030-01
1 38602U 22342RZ  26037.47800926  .00000000  00000+0  00000-0 0  9995
2 38602 100.0000 348.0000 0000000   0.0000 348.0000 14.89338779    12
CTC1_L_00080030-02
1 38603U 24690IF  26037.47800926  .00000000  00000+0  00000-0 0  9994
2 38603 100.0000 348.0000 0000000   0.0000  78.0000 14.89338779    13
CTC1_L_00080030-03
1 38604U 26614GY  26037.47800926  .00000000  00000+0  00000-0 0  9993
2 38604 100.0000 348.0000 0000000   0.0000 168.0000 14.89338779    14
CTC1_L_00080030-04
1 38605U 25821DC  26037.47800926  .00000000  00000+0  00000-0 0  9993
2 38605 100.0000 348.0000 0000000   0.0000 258.0000 14.89338779    15
